NUSAT-50 (NANCY ROMAN)  
1 60493U 24149AB  26068.80227738  .00012094  00000+0  42252-3 0  9994
2 60493  97.3817 150.7693 0002523 238.0469 122.0527 15.29713355 86930
STARLINK-36101          
1 66867U 25281V   26068.18094528  .00035260  00000+0  12848-2 0  9990
2 66867  42.9984 346.6993 0000609 308.8526  51.2271 15.27578133 16094
